{
  "type": "FeatureCollection",
  "features": [
    {
      "type": "Feature",
      "properties": {
        "norad_id": 43719,
        "name": "HYSIS",
        "group": "resource",
        "lat": 81.78448587300323,
        "lon": -63.119110250318684,
        "alt_km": 625.1868499018301,
        "timestamp": "2025-12-02T13:52:16.933406+00:00",
        "meta_object_name": "HYSIS",
        "meta_object_id": "2018-096A",
        "meta_epoch": "2025-12-02T02:05:19.807584",
        "meta_mean_motion": 14.78593325,
        "meta_eccentricity": 0.00017552,
        "meta_inclination": 98.0111,
        "meta_ra_of_asc_node": 39.1163,
        "meta_arg_of_pericenter": 68.8994,
        "meta_mean_anomaly": 291.2404,
        "meta_ephemeris_type": 0,
        "meta_classification_type": "U",
        "meta_norad_cat_id": 43719,
        "meta_element_set_no": 999,
        "meta_rev_at_epoch": 37829,
        "meta_bstar": 2.1475355e-05,
        "meta_mean_motion_dot": 1.05e-06,
        "meta_mean_motion_ddot": 0,
        "tle_line1": "1 43719U 18096A   25336.08703481  .00000105  00000+0  21475-4 0  9996",
        "tle_line2": "2 43719  98.0111  39.1163 0001755  68.8994 291.2404 14.78593325378299"
      },
      "geometry": {
        "type": "Point",
        "coordinates": [
          -63.119110250318684,
          81.78448587300323
        ]
      }
    },
    {
      "type": "Feature",
      "properties": {
        "norad_id": 43783,
        "name": "KAZSTSAT",
        "group": "resource",
        "lat": -66.80132937486903,
        "lon": 29.990730079237657,
        "alt_km": 575.146332499211,
        "timestamp": "2025-12-02T13:52:16.933417+00:00",
        "meta_object_name": "KAZSTSAT",
        "meta_object_id": "2018-099AB",
        "meta_epoch": "2025-12-02T01:21:35.196768",
        "meta_mean_motion": 14.99291992,
        "meta_eccentricity": 0.00066196,
        "meta_inclination": 97.4552,
        "meta_ra_of_asc_node": 11.7011,
        "meta_arg_of_pericenter": 8.824,
        "meta_mean_anomaly": 351.3099,
        "meta_ephemeris_type": 0,
        "meta_classification_type": "U",
        "meta_norad_cat_id": 43783,
        "meta_element_set_no": 999,
        "meta_rev_at_epoch": 38176,
        "meta_bstar": 0.00020697251,
        "meta_mean_motion_dot": 2.472e-05,
        "meta_mean_motion_ddot": 0,
        "tle_line1": "1 43783U 18099AB  25336.05665737  .00002472  00000+0  20697-3 0  9991",
        "tle_line2": "2 43783  97.4552  11.7011 0006619   8.8240 351.3099 14.99291992381764"
      },
      "geometry": {
        "type": "Point",
        "coordinates": [
          29.990730079237657,
          -66.80132937486903
        ]
      }
    },
    {
      "type": "Feature",
      "properties": {
        "norad_id": 43831,
        "name": "SAUDISAT 5A",
        "group": "resource",
        "lat": 71.72376181397442,
        "lon": -120.0679185183572,
        "alt_km": 474.4387736759563,
        "timestamp": "2025-12-02T13:52:16.933427+00:00",
        "meta_object_name": "SAUDISAT 5A",
        "meta_object_id": "2018-102A",
        "meta_epoch": "2025-12-02T07:06:30.143808",
        "meta_mean_motion": 15.25450663,
        "meta_eccentricity": 0.00117784,
        "meta_inclination": 97.3376,
        "meta_ra_of_asc_node": 36.69,
        "meta_arg_of_pericenter": 108.3316,
        "meta_mean_anomaly": 251.9205,
        "meta_ephemeris_type": 0,
        "meta_classification_type": "U",
        "meta_norad_cat_id": 43831,
        "meta_element_set_no": 999,
        "meta_rev_at_epoch": 38563,
        "meta_bstar": 0.00029928363,
        "meta_mean_motion_dot": 7.514e-05,
        "meta_mean_motion_ddot": 0,
        "tle_line1": "1 43831U 18102A   25336.29618222  .00007514  00000+0  29928-3 0  9991",
        "tle_line2": "2 43831  97.3376  36.6900 0011778 108.3316 251.9205 15.25450663385632"
      },
      "geometry": {
        "type": "Point",
        "coordinates": [
          -120.0679185183572,
          71.72376181397442
        ]
      }
    },
    {
      "type": "Feature",
      "properties": {
        "norad_id": 43833,
        "name": "SAUDISAT 5B",
        "group": "resource",
        "lat": 33.4902448636754,
        "lon": -135.41608691204775,
        "alt_km": 479.446334400207,
        "timestamp": "2025-12-02T13:52:16.933437+00:00",
        "meta_object_name": "SAUDISAT 5B",
        "meta_object_id": "2018-102C",
        "meta_epoch": "2025-12-02T06:56:17.968704",
        "meta_mean_motion": 15.25808563,
        "meta_eccentricity": 0.0012439,
        "meta_inclination": 97.347,
        "meta_ra_of_asc_node": 39.4028,
        "meta_arg_of_pericenter": 110.9066,
        "meta_mean_anomaly": 249.3505,
        "meta_ephemeris_type": 0,
        "meta_classification_type": "U",
        "meta_norad_cat_id": 43833,
        "meta_element_set_no": 999,
        "meta_rev_at_epoch": 38574,
        "meta_bstar": 0.00028681081,
        "meta_mean_motion_dot": 7.277e-05,
        "meta_mean_motion_ddot": 0,
        "tle_line1": "1 43833U 18102C   25336.28909686  .00007277  00000+0  28681-3 0  9990",
        "tle_line2": "2 43833  97.3470  39.4028 0012439 110.9066 249.3505 15.25808563385749"
      },
      "geometry": {
        "type": "Point",
        "coordinates": [
          -135.41608691204775,
          33.4902448636754
        ]
      }
    },
    {
      "type": "Feature",
      "properties": {
        "norad_id": 44622,
        "name": "GAOFEN-10R",
        "group": "resource",
        "lat": -44.4690287475974,
        "lon": 96.08443432616494,
        "alt_km": 632.721710071638,
        "timestamp": "2025-12-02T13:52:16.933458+00:00",
        "meta_object_name": "GAOFEN-10R",
        "meta_object_id": "2019-066A",
        "meta_epoch": "2025-12-02T08:00:05.981184",
        "meta_mean_motion": 14.82731579,
        "meta_eccentricity": 0.00083005,
        "meta_inclination": 98.0259,
        "meta_ra_of_asc_node": 283.8004,
        "meta_arg_of_pericenter": 70.1977,
        "meta_mean_anomaly": 290.013,
        "meta_ephemeris_type": 0,
        "meta_classification_type": "U",
        "meta_norad_cat_id": 44622,
        "meta_element_set_no": 999,
        "meta_rev_at_epoch": 33320,
        "meta_bstar": 0.0003000028,
        "meta_mean_motion_dot": 2.369e-05,
        "meta_mean_motion_ddot": 0,
        "tle_line1": "1 44622U 19066A   25336.33340256  .00002369  00000+0  30000-3 0  9990",
        "tle_line2": "2 44622  98.0259 283.8004 0008300  70.1977 290.0130 14.82731579333203"
      },
      "geometry": {
        "type": "Point",
        "coordinates": [
          96.08443432616494,
          -44.4690287475974
        ]
      }
    },
    {
      "type": "Feature",
      "properties": {
        "norad_id": 44804,
        "name": "CARTOSAT-3",
        "group": "resource",
        "lat": 44.7628532546288,
        "lon": -136.2437421843602,
        "alt_km": 495.4792541318675,
        "timestamp": "2025-12-02T13:52:16.933469+00:00",
        "meta_object_name": "CARTOSAT-3",
        "meta_object_id": "2019-081A",
        "meta_epoch": "2025-11-28T19:10:32.696256",
        "meta_mean_motion": 15.19179285,
        "meta_eccentricity": 0.00136919,
        "meta_inclination": 97.4604,
        "meta_ra_of_asc_node": 32.557,
        "meta_arg_of_pericenter": 130.907,
        "meta_mean_anomaly": 229.3352,
        "meta_ephemeris_type": 0,
        "meta_classification_type": "U",
        "meta_norad_cat_id": 44804,
        "meta_element_set_no": 999,
        "meta_rev_at_epoch": 33304,
        "meta_bstar": 0.00011293309,
        "meta_mean_motion_dot": 2.312e-05,
        "meta_mean_motion_ddot": 0,
        "tle_line1": "1 44804U 19081A   25332.79898954  .00002312  00000+0  11293-3 0  9999",
        "tle_line2": "2 44804  97.4604  32.5570 0013691 130.9070 229.3352 15.19179285333041"
      },
      "geometry": {
        "type": "Point",
        "coordinates": [
          -136.2437421843602,
          44.7628532546288
        ]
      }
    },
    {
      "type": "Feature",
      "properties": {
        "norad_id": 44819,
        "name": "GAOFEN-12 01",
        "group": "resource",
        "lat": -29.200129922338498,
        "lon": 158.72464078646863,
        "alt_km": 633.3166394424779,
        "timestamp": "2025-12-02T13:52:16.933480+00:00",
        "meta_object_name": "GAOFEN-12 01",
        "meta_object_id": "2019-082A",
        "meta_epoch": "2025-12-02T06:26:26.773152",
        "meta_mean_motion": 14.80637424,
        "meta_eccentricity": 0.00013133,
        "meta_inclination": 97.8129,
        "meta_ra_of_asc_node": 342.8242,
        "meta_arg_of_pericenter": 305.175,
        "meta_mean_anomaly": 54.9339,
        "meta_ephemeris_type": 0,
        "meta_classification_type": "U",
        "meta_norad_cat_id": 44819,
        "meta_element_set_no": 999,
        "meta_rev_at_epoch": 32495,
        "meta_bstar": 0.0001016138,
        "meta_mean_motion_dot": 7.29e-06,
        "meta_mean_motion_ddot": 0,
        "tle_line1": "1 44819U 19082A   25336.26836543  .00000729  00000+0  10161-3 0  9991",
        "tle_line2": "2 44819  97.8129 342.8242 0001313 305.1750  54.9339 14.80637424324953"
      },
      "geometry": {
        "type": "Point",
        "coordinates": [
          158.72464078646863,
          -29.200129922338498
        ]
      }
    }
  ]
}